TIANMU-1 08             
1 57400U 23101B   26066.00237819  .00000346  00000+0  14775-4 0  9993
2 57400  97.2717 118.7901 0006380 134.2174 225.9592 15.29204229146020
STARLINK-36145          
1 66983U 25288AA  26068.28360458  .00028845  00000+0  10532-2 0  9994
2 66983  43.0036  25.8836 0001682 255.2331 104.8334 15.27593375 15220
